[{"OBJECT_NAME":"STARLINK-36854","OBJECT_ID":"2026-057U","EPOCH":"2026-03-28T20:00:01.999008","MEAN_MOTION":16.0365282,"ECCENTRICITY":0.0001246,"INCLINATION":97.2788,"RA_OF_ASC_NODE":210.9678,"ARG_OF_PERICENTER":81.5901,"MEAN_ANOMALY":182.7633,"EPHEMERIS_TYPE":0,"CLASSIFICATION_TYPE":"U","NORAD_CAT_ID":68312,"ELEMENT_SET_NO":999,"REV_AT_EPOCH":228,"BSTAR":-0.0018639,"MEAN_MOTION_DOT":-0.01161581,"MEAN_MOTION_DDOT":0.00045103},{"OBJECT_NAME":"STARLINK-36815","OBJECT_ID":"2026-057V","EPOCH":"2026-03-28T20:00:01.999008","MEAN_MOTION":16.03771002,"ECCENTRICITY":0.000119,"INCLINATION":97.2789,"RA_OF_ASC_NODE":210.9693,"ARG_OF_PERICENTER":70.0825,"MEAN_ANOMALY":197.1132,"EPHEMERIS_TYPE":0,"CLASSIFICATION_TYPE":"U","NORAD_CAT_ID":68313,"ELEMENT_SET_NO":999,"REV_AT_EPOCH":228,"BSTAR":-0.0018294,"MEAN_MOTION_DOT":-0.01148224,"MEAN_MOTION_DDOT":0.00044211},{"OBJECT_NAME":"STARLINK-37155","OBJECT_ID":"2026-057W","EPOCH":"2026-03-28T20:00:01.999008","MEAN_MOTION":16.04050115,"ECCENTRICITY":0.0001228,"INCLINATION":97.2785,"RA_OF_ASC_NODE":210.9717,"ARG_OF_PERICENTER":83.1139,"MEAN_ANOMALY":190.0098,"EPHEMERIS_TYPE":0,"CLASSIFICATION_TYPE":"U","NORAD_CAT_ID":68314,"ELEMENT_SET_NO":999,"REV_AT_EPOCH":233,"BSTAR":-0.0018276,"MEAN_MOTION_DOT":-0.01166112,"MEAN_MOTION_DDOT":0.00045643},{"OBJECT_NAME":"STARLINK-37150","OBJECT_ID":"2026-057X","EPOCH":"2026-03-28T14:00:01.999872","MEAN_MOTION":16.04500506,"ECCENTRICITY":0.00012345,"INCLINATION":97.2788,"RA_OF_ASC_NODE":210.6972,"ARG_OF_PERICENTER":77.5738,"MEAN_ANOMALY":190.0107,"EPHEMERIS_TYPE":0,"CLASSIFICATION_TYPE":"U","NORAD_CAT_ID":68315,"ELEMENT_SET_NO":999,"REV_AT_EPOCH":229,"BSTAR":-0.0018173105,"MEAN_MOTION_DOT":-0.01190923,"MEAN_MOTION_DDOT":0.00047710283},{"OBJECT_NAME":"STARLINK-37154","OBJECT_ID":"2026-057Y","EPOCH":"2026-03-28T14:00:01.999872","MEAN_MOTION":16.04899785,"ECCENTRICITY":0.00010824,"INCLINATION":97.2783,"RA_OF_ASC_NODE":210.7007,"ARG_OF_PERICENTER":61.7643,"MEAN_ANOMALY":214.2172,"EPHEMERIS_TYPE":0,"CLASSIFICATION_TYPE":"U","NORAD_CAT_ID":68316,"ELEMENT_SET_NO":999,"REV_AT_EPOCH":219,"BSTAR":-0.0017575945,"MEAN_MOTION_DOT":-0.01179844,"MEAN_MOTION_DDOT":0.00047118055},{"OBJECT_NAME":"STARLINK-37139","OBJECT_ID":"2026-057Z","EPOCH":"2026-03-28T14:00:01.999872","MEAN_MOTION":16.04766554,"ECCENTRICITY":0.00011193,"INCLINATION":97.2784,"RA_OF_ASC_NODE":210.6995,"ARG_OF_PERICENTER":71.6565,"MEAN_ANOMALY":201.4756,"EPHEMERIS_TYPE":0,"CLASSIFICATION_TYPE":"U","NORAD_CAT_ID":68317,"ELEMENT_SET_NO":999,"REV_AT_EPOCH":204,"BSTAR":-0.0017877459,"MEAN_MOTION_DOT":-0.01190394,"MEAN_MOTION_DDOT":0.00047823293},{"OBJECT_NAME":"STARLINK-37113","OBJECT_ID":"2026-057AA","EPOCH":"2026-03-28T14:00:01.999872","MEAN_MOTION":16.05046501,"ECCENTRICITY":0.0001131,"INCLINATION":97.2782,"RA_OF_ASC_NODE":210.7022,"ARG_OF_PERICENTER":63.263,"MEAN_ANOMALY":215.7141,"EPHEMERIS_TYPE":0,"CLASSIFICATION_TYPE":"U","NORAD_CAT_ID":68318,"ELEMENT_SET_NO":999,"REV_AT_EPOCH":229,"BSTAR":-0.0017435452,"MEAN_MOTION_DOT":-0.01180813,"MEAN_MOTION_DDOT":0.00047273014}]
